NORAD_CAT_ID,OBJECT_NAME,OBJECT_TYPE,EPOCH,MEAN_MOTION,ECCENTRICITY,INCLINATION,RA_OF_ASC_NODE,ARG_OF_PERICENTER,MEAN_ANOMALY,BSTAR,MEAN_MOTION_DOT,MEAN_MOTION_DDOT,TLE_LINE0,TLE_LINE1,TLE_LINE2,SEMIMAJOR_AXIS,PERIOD,APOGEE,PERIGEE,DECAYED
55764.0,STARLINK-5499,PAYLOAD,2024-04-05 15:59:01,14.98339779,0.0003037,70.0011,197.1638,269.7939,90.2872,0.0001237,1.384e-05,0.0,0 STARLINK-5499,1 55764U 23028Z   24096.66598907  .00001384  00000-0  12370-3 0  9995,2 55764  70.0011 197.1638 0003037 269.7939  90.2872 14.98339779 61220,6950.163,96.106,574.138,569.917,0.0
55764.0,STARLINK-5499,PAYLOAD,2024-04-06 12:48:47,14.98326369,0.0003036,70.001,194.9756,270.8465,89.2346,1.1179e-05,4e-07,0.0,0 STARLINK-5499,1 55764U 23028Z   24097.53387943  .00000040  00000-0  11179-4 0  9993,2 55764  70.0010 194.9756 0003036 270.8465  89.2346 14.98326369 61350,6950.204,96.107,574.179,569.959,0.0
55764.0,STARLINK-5499,PAYLOAD,2024-04-06 16:01:03,14.98326692,0.0003034,70.001,194.639,270.9378,89.1433,1.2371e-05,5.5e-07,0.0,0 STARLINK-5499,1 55764U 23028Z   24097.66739936  .00000055  00000-0  12371-4 0  9991,2 55764  70.0010 194.6390 0003034 270.9378  89.1433 14.98326692 61370,6950.203,96.107,574.177,569.959,0.0
55764.0,STARLINK-5499,PAYLOAD,2024-04-07 12:50:48,14.98330007,0.0003143,70.0005,192.4505,272.6677,87.4122,-8.5748e-05,-1.116e-05,0.0,0 STARLINK-5499,1 55764U 23028Z   24098.53528068 -.00001116  00000-0 -85748-4 0  9999,2 55764  70.0005 192.4505 0003143 272.6677  87.4122 14.98330007 61506,6950.193,96.107,574.242,569.873,0.0
55764.0,STARLINK-5499,PAYLOAD,2024-04-08 00:03:43,14.98356223,0.000322,70.0011,191.2722,269.3833,90.6957,-0.00047047,-5.706e-05,0.0,0 STARLINK-5499,1 55764U 23028Z   24099.00259051 -.00005706  00000-0 -47047-3 0  9993,2 55764  70.0011 191.2722 0003220 269.3833  90.6957 14.98356223 61571,6950.112,96.105,574.215,569.739,0.0
55764.0,STARLINK-5499,PAYLOAD,2024-04-08 12:52:48,14.9833557,0.0003188,70.0005,189.9258,273.2087,86.8707,0.00016033,1.821e-05,0.0,0 STARLINK-5499,1 55764U 23028Z   24099.53667165  .00001821  00000-0  16033-3 0  9993,2 55764  70.0005 189.9258 0003188 273.2087  86.8707 14.98335570 61651,6950.176,96.107,574.256,569.825,0.0
55764.0,STARLINK-5499,PAYLOAD,2024-04-09 12:54:49,14.98332891,0.0003337,70.0006,187.4017,272.8232,87.2545,0.00011977,1.336e-05,0.0,0 STARLINK-5499,1 55764U 23028Z   24100.53807380  .00001336  00000-0  11977-3 0  9994,2 55764  70.0006 187.4017 0003337 272.8232  87.2545 14.98332891 61806,6950.184,96.107,574.368,569.73,0.0
55764.0,STARLINK-5499,PAYLOAD,2024-04-09 22:31:37,14.98335969,0.0003311,70.0004,186.3911,272.7932,87.2848,8.9647e-05,9.77e-06,0.0,0 STARLINK-5499,1 55764U 23028Z   24100.93863106  .00000977  00000-0  89647-4 0  9996,2 55764  70.0004 186.3911 0003311 272.7932  87.2848 14.98335969 61864,6950.174,96.107,574.341,569.738,0.0
55764.0,STARLINK-5499,PAYLOAD,2024-04-10 09:44:34,14.98336406,0.000306,70.001,185.2136,272.9547,87.1262,-1.3447e-05,-2.53e-06,0.0,0 STARLINK-5499,1 55764U 23028Z   24101.40595235 -.00000253  00000-0 -13447-4 0  9998,2 55764  70.0010 185.2136 0003060 272.9547  87.1262 14.98336406 61937,6950.173,96.107,574.165,569.911,0.0
55764.0,STARLINK-5499,PAYLOAD,2024-04-11 12:58:51,14.98328962,0.0003001,70.0012,182.3532,267.6225,92.4591,-4.4286e-05,-6.21e-06,0.0,0 STARLINK-5499,1 55764U 23028Z   24102.54087497 -.00000621  00000-0 -44286-4 0  9994,2 55764  70.0012 182.3532 0003001 267.6225  92.4591 14.98328962 62108,6950.196,96.107,574.147,569.975,0.0
55764.0,STARLINK-5499,PAYLOAD,2024-04-11 14:34:59,14.98328929,0.0003002,70.0012,182.1849,267.692,92.3895,-4.449e-05,-6.24e-06,0.0,0 STARLINK-5499,1 55764U 23028Z   24102.60763498 -.00000624  00000-0 -44490-4 0  9993,2 55764  70.0012 182.1849 0003002 267.6920  92.3895 14.98328929 62110,6950.196,96.107,574.148,569.975,0.0
55764.0,STARLINK-5499,PAYLOAD,2024-04-12 13:00:52,14.98329711,0.0003009,70.0012,179.8285,266.9029,93.1785,5.3213e-06,-2.9e-07,0.0,0 STARLINK-5499,1 55764U 23028Z   24103.54227336 -.00000029  00000-0  53213-5 0  9995,2 55764  70.0012 179.8285 0003009 266.9029  93.1785 14.98329711 62258,6950.194,96.107,574.15,569.967,0.0
55764.0,STARLINK-5499,PAYLOAD,2024-04-12 14:37:00,14.98330415,0.0003008,70.0013,179.6603,267.0881,92.9934,1.3624e-05,7e-07,0.0,0 STARLINK-5499,1 55764U 23028Z   24103.60903270  .00000070  00000-0  13624-4 0  9996,2 55764  70.0013 179.6603 0003008 267.0881  92.9934 14.98330415 62265,6950.192,96.107,574.147,569.966,0.0
55764.0,STARLINK-5499,PAYLOAD,2024-04-13 14:39:01,14.98331131,0.00032,70.0006,177.1353,268.5711,91.5081,8.6463e-05,9.39e-06,0.0,0 STARLINK-5499,1 55764U 23028Z   24104.61043103  .00000939  00000-0  86463-4 0  9993,2 55764  70.0006 177.1353 0003200 268.5711  91.5081 14.98331131 62415,6950.189,96.107,574.278,569.83,0.0
55764.0,STARLINK-5499,PAYLOAD,2024-04-14 11:28:46,14.9832576,0.0002954,70.0013,174.9485,258.1365,101.9463,3.4648e-05,3.2e-06,0.0,0 STARLINK-5499,1 55764U 23028Z   24105.47831688  .00000320  00000-0  34648-4 0  9993,2 55764  70.0013 174.9485 0002954 258.1365 101.9463 14.98325760 62544,6950.206,96.107,574.124,570.018,0.0
55764.0,STARLINK-5499,PAYLOAD,2024-04-14 14:41:02,14.98328127,0.0002942,70.0013,174.6111,264.0997,95.9827,2.9363e-05,2.57e-06,0.0,0 STARLINK-5499,1 55764U 23028Z   24105.61183636  .00000257  00000-0  29363-4 0  9999,2 55764  70.0013 174.6111 0002942 264.0997  95.9827 14.98328127 62569,6950.199,96.107,574.108,570.019,0.0
55764.0,STARLINK-5499,PAYLOAD,2024-04-15 05:06:14,14.98335509,0.0003054,70.0008,173.0955,270.6081,89.4728,8.8078e-05,9.58e-06,0.0,0 STARLINK-5499,1 55764U 23028Z   24106.21267004  .00000958  00000-0  88078-4 0  9994,2 55764  70.0008 173.0955 0003054 270.6081  89.4728 14.98335509 62654,6950.176,96.107,574.163,569.918,0.0
55764.0,STARLINK-5499,PAYLOAD,2024-04-15 13:06:54,14.98338979,0.0002989,70.001,172.2539,270.2765,89.8051,0.00012885,1.445e-05,0.0,0 STARLINK-5499,1 55764U 23028Z   24106.54646602  .00001445  00000-0  12885-3 0  9999,2 55764  70.0010 172.2539 0002989 270.2765  89.8051 14.98338979 62700,6950.165,96.106,574.108,569.953,0.0
55764.0,STARLINK-5499,PAYLOAD,2024-04-16 05:08:15,14.98329576,0.0002885,70.0013,170.5719,268.304,91.7788,8.8171e-05,9.59e-06,0.0,0 STARLINK-5499,1 55764U 23028Z   24107.21407226  .00000959  00000-0  88171-4 0  9992,2 55764  70.0013 170.5719 0002885 268.3040  91.7788 14.98329576 62806,6950.194,96.107,574.064,570.054,0.0
55764.0,STARLINK-5499,PAYLOAD,2024-04-16 13:08:55,14.98328955,0.0002261,70.0014,169.7309,262.104,97.9862,0.00024219,2.798e-05,0.0,0 STARLINK-5499,1 55764U 23028Z   24107.54786975  .00002798  00000-0  24219-3 0  9994,2 55764  70.0014 169.7309 0002261 262.1040  97.9862 14.98328955 62858,6950.196,96.107,573.633,570.49,0.0
55764.0,STARLINK-5499,PAYLOAD,2024-04-17 11:34:48,14.98339476,0.0002758,70.0012,167.3744,262.1263,97.9583,2.9236e-05,2.56e-06,0.0,0 STARLINK-5499,1 55764U 23028Z   24108.48250312  .00000256  00000-0  29236-4 0  9991,2 55764  70.0012 167.3744 0002758 262.1263  97.9583 14.98339476 62996,6950.164,96.106,573.945,570.112,0.0
55764.0,STARLINK-5499,PAYLOAD,2024-04-17 13:10:56,14.98340068,0.0002783,70.0011,167.2061,262.4959,97.5884,2.295e-05,1.81e-06,0.0,0 STARLINK-5499,1 55764U 23028Z   24108.54926246  .00000181  00000-0  22950-4 0  9997,2 55764  70.0011 167.2061 0002783 262.4959  97.5884 14.98340068 63001,6950.162,96.106,573.961,570.093,0.0
55764.0,STARLINK-5499,PAYLOAD,2024-04-18 13:12:59,14.98315819,0.0002588,70.0014,164.6816,249.8465,110.2416,-0.00012413,-1.573e-05,0.0,0 STARLINK-5499,1 55764U 23028Z   24109.55068372 -.00001573  00000-0 -12413-3 0  9996,2 55764  70.0014 164.6816 0002588 249.8465 110.2416 14.98315819 63153,6950.237,96.108,573.9,570.303,0.0
55764.0,STARLINK-5499,PAYLOAD,2024-04-19 05:14:18,14.98332842,0.0003573,69.9987,162.9956,274.7586,85.3165,2.0818e-06,-6.8e-07,0.0,0 STARLINK-5499,1 55764U 23028Z   24110.21827214 -.00000068  00000-0  20818-5 0  9996,2 55764  69.9987 162.9956 0003573 274.7586  85.3165 14.98332842 63250,6950.184,96.107,574.532,569.566,0.0
55764.0,STARLINK-5499,PAYLOAD,2024-04-19 11:38:50,14.9834107,0.0003164,69.9996,162.3234,266.7403,93.3394,0.00012745,1.428e-05,0.0,0 STARLINK-5499,1 55764U 23028Z   24110.48530325  .00001428  00000-0  12745-3 0  9997,2 55764  69.9996 162.3234 0003164 266.7403  93.3394 14.98341070 63298,6950.159,96.106,574.223,569.825,0.0
55764.0,STARLINK-5499,PAYLOAD,2024-04-19 13:14:58,14.98339626,0.0002759,70.0008,162.1566,256.3972,103.688,0.00011613,1.293e-05,0.0,0 STARLINK-5499,1 55764U 23028Z   24110.55206404  .00001293  00000-0  11613-3 0  9996,2 55764  70.0008 162.1566 0002759 256.3972 103.6880 14.98339626 63307,6950.163,96.106,573.946,570.111,0.0
55764.0,STARLINK-5499,PAYLOAD,2024-04-20 05:16:19,14.98327703,0.0002849,70.0005,160.4727,260.1733,99.9104,0.0002383,2.751e-05,0.0,0 STARLINK-5499,1 55764U 23028Z   24111.21966906  .00002751  00000-0  23830-3 0  9994,2 55764  70.0005 160.4727 0002849 260.1733  99.9104 14.98327703 63402,6950.2,96.107,574.045,570.085,0.0
55764.0,STARLINK-5499,PAYLOAD,2024-04-20 13:16:59,14.98330107,0.0002409,70.0016,159.6314,246.0182,114.0725,0.0003037,3.533e-05,0.0,0 STARLINK-5499,1 55764U 23028Z   24111.55346710  .00003533  00000-0  30370-3 0  9992,2 55764  70.0016 159.6314 0002409 246.0182 114.0725 14.98330107 63454,6950.193,96.107,573.732,570.383,0.0
55764.0,STARLINK-5499,PAYLOAD,2024-04-21 03:42:14,14.98315296,0.0003324,70.0012,158.1156,261.2448,98.8335,-0.00019285,-2.392e-05,0.0,0 STARLINK-5499,1 55764U 23028Z   24112.15432887 -.00002392  00000-0 -19285-3 0  9996,2 55764  70.0012 158.1156 0003324 261.2448  98.8335 14.98315296 63547,6950.238,96.108,574.414,569.793,0.0
55764.0,STARLINK-5499,PAYLOAD,2024-04-21 13:19:02,14.9831877,0.0003254,69.9993,157.1063,263.2219,96.8569,-0.00019869,-2.462e-05,0.0,0 STARLINK-5499,1 55764U 23028Z   24112.55488989 -.00002462  00000-0 -19869-3 0  9990,2 55764  69.9993 157.1063 0003254 263.2219  96.8569 14.98318770 63602,6950.228,96.108,574.354,569.831,0.0
